{"type": "FeatureCollection", "features": [{"type": "Feature", "properties": {"norad_id": 25590, "name": "COSMOS 2361", "group": "musson", "lat": 82.20852160199904, "lon": 51.57293198811156, "alt_km": 1002.4958297426965, "timestamp": "2025-12-09T09:46:47.915126+00:00", "meta": {"OBJECT_NAME": "COSMOS 2361", "OBJECT_ID": "1998-076A", "EPOCH": "2025-12-08T23:10:58.205280", "MEAN_MOTION": 13.73216844, "ECCENTRICITY": 0.00300628, "INCLINATION": 82.9338, "RA_OF_ASC_NODE": 346.8779, "ARG_OF_PERICENTER": 276.5709, "MEAN_ANOMALY": 148.5033, "EPHEMERIS_TYPE": 0, "CLASSIFICATION_TYPE": "U", "NORAD_CAT_ID": 25590, "ELEMENT_SET_NO": 999, "REV_AT_EPOCH": 35059, "BSTAR": 7.7115596e-05, "MEAN_MOTION_DOT": 8.6e-07, "MEAN_MOTION_DDOT": 0}, "tle": {"line1": "1 25590U 98076A   25342.96595145  .00000086  00000+0  77116-4 0  9990", "line2": "2 25590  82.9338 346.8779 0030062 276.5709 148.5033 13.73216844350592"}}, "geometry": {"type": "Point", "coordinates": [51.57293198811156, 82.20852160199904]}}, {"type": "Feature", "properties": {"norad_id": 26818, "name": "COSMOS 2378", "group": "musson", "lat": 31.748307043387342, "lon": 177.79024885872826, "alt_km": 973.3539118906001, "timestamp": "2025-12-09T09:46:47.915149+00:00", "meta": {"OBJECT_NAME": "COSMOS 2378", "OBJECT_ID": "2001-023A", "EPOCH": "2025-12-08T19:55:11.034048", "MEAN_MOTION": 13.74141511, "ECCENTRICITY": 0.00321841, "INCLINATION": 82.9273, "RA_OF_ASC_NODE": 2.6241, "ARG_OF_PERICENTER": 215.9787, "MEAN_ANOMALY": 316.963, "EPHEMERIS_TYPE": 0, "CLASSIFICATION_TYPE": "U", "NORAD_CAT_ID": 26818, "ELEMENT_SET_NO": 999, "REV_AT_EPOCH": 22869, "BSTAR": 6.0047359e-05, "MEAN_MOTION_DOT": 7.2e-07, "MEAN_MOTION_DDOT": 0}, "tle": {"line1": "1 26818U 01023A   25342.82998882  .00000072  00000+0  60047-4 0  9990", "line2": "2 26818  82.9273   2.6241 0032184 215.9787 316.9630 13.74141511228693"}}, "geometry": {"type": "Point", "coordinates": [177.79024885872826, 31.748307043387342]}}, {"type": "Feature", "properties": {"norad_id": 27436, "name": "COSMOS 2389", "group": "musson", "lat": -17.5049663966587, "lon": -52.785030634268466, "alt_km": 984.1802291868944, "timestamp": "2025-12-09T09:46:47.915163+00:00", "meta": {"OBJECT_NAME": "COSMOS 2389", "OBJECT_ID": "2002-026A", "EPOCH": "2025-12-08T23:40:49.146816", "MEAN_MOTION": 13.75154006, "ECCENTRICITY": 0.00477053, "INCLINATION": 82.9499, "RA_OF_ASC_NODE": 309.7632, "ARG_OF_PERICENTER": 70.9381, "MEAN_ANOMALY": 349.9653, "EPHEMERIS_TYPE": 0, "CLASSIFICATION_TYPE": "U", "NORAD_CAT_ID": 27436, "ELEMENT_SET_NO": 999, "REV_AT_EPOCH": 18097, "BSTAR": 8.1346407e-05, "MEAN_MOTION_DOT": 9.4e-07, "MEAN_MOTION_DDOT": 0}, "tle": {"line1": "1 27436U 02026A   25342.98667994  .00000094  00000+0  81346-4 0  9994", "line2": "2 27436  82.9499 309.7632 0047705  70.9381 349.9653 13.75154006180972"}}, "geometry": {"type": "Point", "coordinates": [-52.785030634268466, -17.5049663966587]}}, {"type": "Feature", "properties": {"norad_id": 27818, "name": "COSMOS 2398", "group": "musson", "lat": -31.155873297463643, "lon": -89.13770719666628, "alt_km": 1018.0860046444232, "timestamp": "2025-12-09T09:46:47.915176+00:00", "meta": {"OBJECT_NAME": "COSMOS 2398", "OBJECT_ID": "2003-023A", "EPOCH": "2025-12-08T22:00:01.531296", "MEAN_MOTION": 13.72385084, "ECCENTRICITY": 0.00324483, "INCLINATION": 82.9482, "RA_OF_ASC_NODE": 275.5155, "ARG_OF_PERICENTER": 122.0308, "MEAN_ANOMALY": 303.2785, "EPHEMERIS_TYPE": 0, "CLASSIFICATION_TYPE": "U", "NORAD_CAT_ID": 27818, "ELEMENT_SET_NO": 999, "REV_AT_EPOCH": 12764, "BSTAR": 8.930733e-05, "MEAN_MOTION_DOT": 9.7e-07, "MEAN_MOTION_DDOT": 0}, "tle": {"line1": "1 27818U 03023A   25342.91668439  .00000097  00000+0  89307-4 0  9992", "line2": "2 27818  82.9482 275.5155 0032448 122.0308 303.2785 13.72385084127647"}}, "geometry": {"type": "Point", "coordinates": [-89.13770719666628, -31.155873297463643]}}, {"type": "Feature", "properties": {"norad_id": 28380, "name": "COSMOS 2407", "group": "musson", "lat": 61.238891300532465, "lon": 22.351326960334358, "alt_km": 953.5079937857372, "timestamp": "2025-12-09T09:46:47.915189+00:00", "meta": {"OBJECT_NAME": "COSMOS 2407", "OBJECT_ID": "2004-028A", "EPOCH": "2025-12-08T16:00:58.962240", "MEAN_MOTION": 13.76313059, "ECCENTRICITY": 0.0040444, "INCLINATION": 82.9612, "RA_OF_ASC_NODE": 215.9077, "ARG_OF_PERICENTER": 65.8914, "MEAN_ANOMALY": 346.471, "EPHEMERIS_TYPE": 0, "CLASSIFICATION_TYPE": "U", "NORAD_CAT_ID": 28380, "ELEMENT_SET_NO": 999, "REV_AT_EPOCH": 7367, "BSTAR": 9.5579e-05, "MEAN_MOTION_DOT": 1.09e-06, "MEAN_MOTION_DDOT": 0}, "tle": {"line1": "1 28380U 04028A   25342.66734910  .00000109  00000+0  95579-4 0  9995", "line2": "2 28380  82.9612 215.9077 0040444  65.8914 346.4710 13.76313059 73677"}}, "geometry": {"type": "Point", "coordinates": [22.351326960334358, 61.238891300532465]}}, {"type": "Feature", "properties": {"norad_id": 28521, "name": "COSMOS 2414", "group": "musson", "lat": -61.83554139091568, "lon": 20.544324386640316, "alt_km": 944.9138529153579, "timestamp": "2025-12-09T09:46:47.915211+00:00", "meta": {"OBJECT_NAME": "COSMOS 2414", "OBJECT_ID": "2005-002A", "EPOCH": "2025-12-08T22:14:11.729760", "MEAN_MOTION": 13.87902188, "ECCENTRICITY": 0.00406742, "INCLINATION": 82.9495, "RA_OF_ASC_NODE": 187.5434, "ARG_OF_PERICENTER": 150.3858, "MEAN_ANOMALY": 209.9621, "EPHEMERIS_TYPE": 0, "CLASSIFICATION_TYPE": "U", "NORAD_CAT_ID": 28521, "ELEMENT_SET_NO": 999, "REV_AT_EPOCH": 5742, "BSTAR": 7.0394839e-05, "MEAN_MOTION_DOT": 1e-06, "MEAN_MOTION_DDOT": 0}, "tle": {"line1": "1 28521U 05002A   25342.92652465  .00000100  00000+0  70395-4 0  9998", "line2": "2 28521  82.9495 187.5434 0040674 150.3858 209.9621 13.87902188 57424"}}, "geometry": {"type": "Point", "coordinates": [20.544324386640316, -61.83554139091568]}}, {"type": "Feature", "properties": {"norad_id": 32052, "name": "COSMOS 2429", "group": "musson", "lat": 10.485145813297402, "lon": 164.45908363441308, "alt_km": 998.0621391413451, "timestamp": "2025-12-09T09:46:47.915234+00:00", "meta": {"OBJECT_NAME": "COSMOS 2429", "OBJECT_ID": "2007-038A", "EPOCH": "2025-12-08T22:29:06.638496", "MEAN_MOTION": 13.75148759, "ECCENTRICITY": 0.00394244, "INCLINATION": 82.9802, "RA_OF_ASC_NODE": 346.1125, "ARG_OF_PERICENTER": 48.2125, "MEAN_ANOMALY": 312.2388, "EPHEMERIS_TYPE": 0, "CLASSIFICATION_TYPE": "U", "NORAD_CAT_ID": 32052, "ELEMENT_SET_NO": 999, "REV_AT_EPOCH": 91550, "BSTAR": 5.9885546e-05, "MEAN_MOTION_DOT": 7.3e-07, "MEAN_MOTION_DDOT": 0}, "tle": {"line1": "1 32052U 07038A   25342.93688239  .00000073  00000+0  59886-4 0  9993", "line2": "2 32052  82.9802 346.1125 0039424  48.2125 312.2388 13.75148759915506"}}, "geometry": {"type": "Point", "coordinates": [164.45908363441308, 10.485145813297402]}}, {"type": "Feature", "properties": {"norad_id": 35635, "name": "COSMOS 2454", "group": "musson", "lat": -82.68978019923256, "lon": 65.71974201410741, "alt_km": 951.1658639409088, "timestamp": "2025-12-09T09:46:47.915247+00:00", "meta": {"OBJECT_NAME": "COSMOS 2454", "OBJECT_ID": "2009-039A", "EPOCH": "2025-12-08T18:43:22.690272", "MEAN_MOTION": 13.8992788, "ECCENTRICITY": 0.00204814, "INCLINATION": 82.9556, "RA_OF_ASC_NODE": 171.6466, "ARG_OF_PERICENTER": 84.3022, "MEAN_ANOMALY": 286.3458, "EPHEMERIS_TYPE": 0, "CLASSIFICATION_TYPE": "U", "NORAD_CAT_ID": 35635, "ELEMENT_SET_NO": 999, "REV_AT_EPOCH": 83095, "BSTAR": 6.8597696e-05, "MEAN_MOTION_DOT": 1.01e-06, "MEAN_MOTION_DDOT": 0}, "tle": {"line1": "1 35635U 09039A   25342.78012373  .00000101  00000+0  68598-4 0  9991", "line2": "2 35635  82.9556 171.6466 0020481  84.3022 286.3458 13.89927880830950"}}, "geometry": {"type": "Point", "coordinates": [65.71974201410741, -82.68978019923256]}}, {"type": "Feature", "properties": {"norad_id": 36519, "name": "COSMOS 2463", "group": "musson", "lat": 12.789971659685754, "lon": -152.44574229571055, "alt_km": 1011.4543177045871, "timestamp": "2025-12-09T09:46:47.915259+00:00", "meta": {"OBJECT_NAME": "COSMOS 2463", "OBJECT_ID": "2010-017A", "EPOCH": "2025-12-09T03:48:53.335296", "MEAN_MOTION": 13.71648739, "ECCENTRICITY": 0.0034867, "INCLINATION": 82.9615, "RA_OF_ASC_NODE": 29.3439, "ARG_OF_PERICENTER": 298.3646, "MEAN_ANOMALY": 82.3141, "EPHEMERIS_TYPE": 0, "CLASSIFICATION_TYPE": "U", "NORAD_CAT_ID": 36519, "ELEMENT_SET_NO": 999, "REV_AT_EPOCH": 78188, "BSTAR": 6.9531e-05, "MEAN_MOTION_DOT": 7.8e-07, "MEAN_MOTION_DDOT": 0}, "tle": {"line1": "1 36519U 10017A   25343.15895064  .00000078  00000+0  69531-4 0  9990", "line2": "2 36519  82.9615  29.3439 0034867 298.3646  82.3141 13.71648739781883"}}, "geometry": {"type": "Point", "coordinates": [-152.44574229571055, 12.789971659685754]}}]}